CCSDS_OMM_VERS = 2.0
CREATION_DATE  = 
ORIGINATOR     = 

OBJECT_NAME    = ALOS (DAICHI)
OBJECT_ID      = 2006-002A
CENTER_NAME    = EARTH
REF_FRAME      = TEME
TIME_SYSTEM    = UTC
MEAN_ELEMENT_THEORY = SGP/SGP4

EPOCH          = 2026-01-13T03:39:50.440896
MEAN_MOTION    = 14.69599554
ECCENTRICITY   = .00021339
INCLINATION    = 98.1131
RA_OF_ASC_NODE = 329.4279
ARG_OF_PERICENTER = 92.5218
MEAN_ANOMALY   = 267.6232

EPHEMERIS_TYPE = 0
CLASSIFICATION_TYPE = U
NORAD_CAT_ID   = 28931
ELEMENT_SET_NO = 999
REV_AT_EPOCH   = 6532
BSTAR          = .18754957E-3
MEAN_MOTION_DOT = .1065E-4
MEAN_MOTION_DDOT = 0

CCSDS_OMM_VERS = 2.0
CREATION_DATE  = 
ORIGINATOR     = 

OBJECT_NAME    = H-2A R/B
OBJECT_ID      = 2006-002B
CENTER_NAME    = EARTH
REF_FRAME      = TEME
TIME_SYSTEM    = UTC
MEAN_ELEMENT_THEORY = SGP/SGP4

EPOCH          = 2026-01-12T23:04:51.629088
MEAN_MOTION    = 15.15269896
ECCENTRICITY   = .0054585
INCLINATION    = 98.2325
RA_OF_ASC_NODE = 155.2802
ARG_OF_PERICENTER = 71.3719
MEAN_ANOMALY   = 289.3427

EPHEMERIS_TYPE = 0
CLASSIFICATION_TYPE = U
NORAD_CAT_ID   = 28932
ELEMENT_SET_NO = 999
REV_AT_EPOCH   = 8599
BSTAR          = .28831E-3
MEAN_MOTION_DOT = .5551E-4
MEAN_MOTION_DDOT = 0

CCSDS_OMM_VERS = 2.0
CREATION_DATE  = 
ORIGINATOR     = 

OBJECT_NAME    = RESURS-DK 1
OBJECT_ID      = 2006-021A
CENTER_NAME    = EARTH
REF_FRAME      = TEME
TIME_SYSTEM    = UTC
MEAN_ELEMENT_THEORY = SGP/SGP4

EPOCH          = 2026-01-13T04:23:39.362208
MEAN_MOTION    = 15.12368142
ECCENTRICITY   = .00059751
INCLINATION    = 69.9339
RA_OF_ASC_NODE = 20.5646
ARG_OF_PERICENTER = 231.7552
MEAN_ANOMALY   = 128.3077

EPHEMERIS_TYPE = 0
CLASSIFICATION_TYPE = U
NORAD_CAT_ID   = 29228
ELEMENT_SET_NO = 999
REV_AT_EPOCH   = 7913
BSTAR          = .1189736E-3
MEAN_MOTION_DOT = .1962E-4
MEAN_MOTION_DDOT = 0

CCSDS_OMM_VERS = 2.0
CREATION_DATE  = 
ORIGINATOR     = 

OBJECT_NAME    = CZ-4B R/B
OBJECT_ID      = 2006-046C
CENTER_NAME    = EARTH
REF_FRAME      = TEME
TIME_SYSTEM    = UTC
MEAN_ELEMENT_THEORY = SGP/SGP4

EPOCH          = 2026-01-13T02:53:33.040320
MEAN_MOTION    = 15.16241139
ECCENTRICITY   = .00352928
INCLINATION    = 97.5698
RA_OF_ASC_NODE = 58.1746
ARG_OF_PERICENTER = 99.7559
MEAN_ANOMALY   = 260.7662

EPHEMERIS_TYPE = 0
CLASSIFICATION_TYPE = U
NORAD_CAT_ID   = 29507
ELEMENT_SET_NO = 999
REV_AT_EPOCH   = 5162
BSTAR          = .20637464E-3
MEAN_MOTION_DOT = .3984E-4
MEAN_MOTION_DDOT = 0

CCSDS_OMM_VERS = 2.0
CREATION_DATE  = 
ORIGINATOR     = 

OBJECT_NAME    = CZ-2C R/B
OBJECT_ID      = 2007-010B
CENTER_NAME    = EARTH
REF_FRAME      = TEME
TIME_SYSTEM    = UTC
MEAN_ELEMENT_THEORY = SGP/SGP4

EPOCH          = 2026-01-13T06:45:02.423520
MEAN_MOTION    = 14.20224262
ECCENTRICITY   = .00601442
INCLINATION    = 98.3972
RA_OF_ASC_NODE = 129.3451
ARG_OF_PERICENTER = 95.3347
MEAN_ANOMALY   = 265.4696

EPHEMERIS_TYPE = 0
CLASSIFICATION_TYPE = U
NORAD_CAT_ID   = 31114
ELEMENT_SET_NO = 999
REV_AT_EPOCH   = 97185
BSTAR          = .61148418E-4
MEAN_MOTION_DOT = .93E-6
MEAN_MOTION_DDOT = 0

CCSDS_OMM_VERS = 2.0
CREATION_DATE  = 
ORIGINATOR     = 

OBJECT_NAME    = COSMO-SKYMED 1
OBJECT_ID      = 2007-023A
CENTER_NAME    = EARTH
REF_FRAME      = TEME
TIME_SYSTEM    = UTC
MEAN_ELEMENT_THEORY = SGP/SGP4

EPOCH          = 2026-01-13T07:02:54.962016
MEAN_MOTION    = 14.96046251
ECCENTRICITY   = .00013653
INCLINATION    = 97.8848
RA_OF_ASC_NODE = 203.9063
ARG_OF_PERICENTER = 75.5091
MEAN_ANOMALY   = 284.6281

EPHEMERIS_TYPE = 0
CLASSIFICATION_TYPE = U
NORAD_CAT_ID   = 31598
ELEMENT_SET_NO = 999
REV_AT_EPOCH   = 662
BSTAR          = .21309041E-3
MEAN_MOTION_DOT = .2333E-4
MEAN_MOTION_DDOT = 0

CCSDS_OMM_VERS = 2.0
CREATION_DATE  = 
ORIGINATOR     = 

OBJECT_NAME    = COSMOS 2428
OBJECT_ID      = 2007-029A
CENTER_NAME    = EARTH
REF_FRAME      = TEME
TIME_SYSTEM    = UTC
MEAN_ELEMENT_THEORY = SGP/SGP4

EPOCH          = 2026-01-13T04:08:18.283776
MEAN_MOTION    = 14.12908698
ECCENTRICITY   = .00055568
INCLINATION    = 70.9395
RA_OF_ASC_NODE = 319.8848
ARG_OF_PERICENTER = 341.3027
MEAN_ANOMALY   = 18.7889

EPHEMERIS_TYPE = 0
CLASSIFICATION_TYPE = U
NORAD_CAT_ID   = 31792
ELEMENT_SET_NO = 999
REV_AT_EPOCH   = 95625
BSTAR          = .20665446E-3
MEAN_MOTION_DOT = .337E-5
MEAN_MOTION_DDOT = 0

CCSDS_OMM_VERS = 2.0
CREATION_DATE  = 
ORIGINATOR     = 

OBJECT_NAME    = SL-16 R/B
OBJECT_ID      = 2007-029B
CENTER_NAME    = EARTH
REF_FRAME      = TEME
TIME_SYSTEM    = UTC
MEAN_ELEMENT_THEORY = SGP/SGP4

EPOCH          = 2026-01-13T05:21:15.123744
MEAN_MOTION    = 14.14824898
ECCENTRICITY   = .00022556
INCLINATION    = 70.9766
RA_OF_ASC_NODE = 288.9787
ARG_OF_PERICENTER = 273.5870
MEAN_ANOMALY   = 240.3031

EPHEMERIS_TYPE = 0
CLASSIFICATION_TYPE = U
NORAD_CAT_ID   = 31793
ELEMENT_SET_NO = 999
REV_AT_EPOCH   = 95752
BSTAR          = -.87951413E-4
MEAN_MOTION_DOT = -.218E-5
MEAN_MOTION_DDOT = 0

CCSDS_OMM_VERS = 2.0
CREATION_DATE  = 
ORIGINATOR     = 

OBJECT_NAME    = KORONAS-FOTON
OBJECT_ID      = 2009-003A
CENTER_NAME    = EARTH
REF_FRAME      = TEME
TIME_SYSTEM    = UTC
MEAN_ELEMENT_THEORY = SGP/SGP4

EPOCH          = 2026-01-12T23:27:37.544832
MEAN_MOTION    = 15.41879527
ECCENTRICITY   = .0011404
INCLINATION    = 82.4317
RA_OF_ASC_NODE = 333.7213
ARG_OF_PERICENTER = 10.1384
MEAN_ANOMALY   = 350.0090

EPHEMERIS_TYPE = 0
CLASSIFICATION_TYPE = U
NORAD_CAT_ID   = 33504
ELEMENT_SET_NO = 999
REV_AT_EPOCH   = 93715
BSTAR          = .17978E-3
MEAN_MOTION_DOT = .7684E-4
MEAN_MOTION_DDOT = 0

CCSDS_OMM_VERS = 2.0
CREATION_DATE  = 
ORIGINATOR     = 

OBJECT_NAME    = CZ-2C R/B
OBJECT_ID      = 2011-030B
CENTER_NAME    = EARTH
REF_FRAME      = TEME
TIME_SYSTEM    = UTC
MEAN_ELEMENT_THEORY = SGP/SGP4

EPOCH          = 2026-01-13T03:17:38.032800
MEAN_MOTION    = 14.81007447
ECCENTRICITY   = .00529173
INCLINATION    = 97.8453
RA_OF_ASC_NODE = 331.5584
ARG_OF_PERICENTER = 169.5751
MEAN_ANOMALY   = 201.1856

EPHEMERIS_TYPE = 0
CLASSIFICATION_TYPE = U
NORAD_CAT_ID   = 37731
ELEMENT_SET_NO = 999
REV_AT_EPOCH   = 78187
BSTAR          = .1262749E-3
MEAN_MOTION_DOT = .947E-5
MEAN_MOTION_DDOT = 0

CCSDS_OMM_VERS = 2.0
CREATION_DATE  = 
ORIGINATOR     = 

OBJECT_NAME    = H-2A R/B
OBJECT_ID      = 2012-025E
CENTER_NAME    = EARTH
REF_FRAME      = TEME
TIME_SYSTEM    = UTC
MEAN_ELEMENT_THEORY = SGP/SGP4

EPOCH          = 2026-01-13T07:22:27.346944
MEAN_MOTION    = 14.94673653
ECCENTRICITY   = .00461228
INCLINATION    = 98.4636
RA_OF_ASC_NODE = 335.9839
ARG_OF_PERICENTER = 132.4235
MEAN_ANOMALY   = 228.0900

EPHEMERIS_TYPE = 0
CLASSIFICATION_TYPE = U
NORAD_CAT_ID   = 38341
ELEMENT_SET_NO = 999
REV_AT_EPOCH   = 73994
BSTAR          = .27717746E-3
MEAN_MOTION_DOT = .3E-4
MEAN_MOTION_DDOT = 0

CCSDS_OMM_VERS = 2.0
CREATION_DATE  = 
ORIGINATOR     = 

OBJECT_NAME    = SHIJIAN-16 (SJ-16)
OBJECT_ID      = 2013-057A
CENTER_NAME    = EARTH
REF_FRAME      = TEME
TIME_SYSTEM    = UTC
MEAN_ELEMENT_THEORY = SGP/SGP4

EPOCH          = 2026-01-13T07:37:51.412224
MEAN_MOTION    = 14.92136432
ECCENTRICITY   = .00178178
INCLINATION    = 74.9734
RA_OF_ASC_NODE = 289.8997
ARG_OF_PERICENTER = 246.7876
MEAN_ANOMALY   = 113.1436

EPHEMERIS_TYPE = 0
CLASSIFICATION_TYPE = U
NORAD_CAT_ID   = 39358
ELEMENT_SET_NO = 999
REV_AT_EPOCH   = 66324
BSTAR          = .22057882E-3
MEAN_MOTION_DOT = .2221E-4
MEAN_MOTION_DDOT = 0

