ALOS (DAICHI)           
1 28931U 06002A   26013.15266714  .00001065  00000+0  18755-3 0  9995
2 28931  98.1131 329.4279 0002133  92.5218 267.6232 14.69599554 65321
H-2A R/B                
1 28932U 06002B   26012.96170867  .00005551  00000+0  28831-3 0  9997
2 28932  98.2325 155.2802 0054585  71.3719 289.3427 15.15269896 85991
RESURS-DK 1             
1 29228U 06021A   26013.18309447  .00001962  00000+0  11897-3 0  9996
2 29228  69.9339  20.5646 0005975 231.7552 128.3077 15.12368142 79139
CZ-4B R/B               
1 29507U 06046C   26013.12052130  .00003984  00000+0  20637-3 0  9999
2 29507  97.5698  58.1746 0035292  99.7559 260.7662 15.16241139 51621
CZ-2C R/B               
1 31114U 07010B   26013.28127805  .00000093  00000+0  61148-4 0  9998
2 31114  98.3972 129.3451 0060144  95.3347 265.4696 14.20224262971854
COSMO-SKYMED 1          
1 31598U 07023A   26013.29369169  .00002333  00000+0  21309-3 0  9993
2 31598  97.8848 203.9063 0001365  75.5091 284.6281 14.96046251  6620
COSMOS 2428             
1 31792U 07029A   26013.17243384  .00000337  00000+0  20665-3 0  9998
2 31792  70.9395 319.8848 0005556 341.3027  18.7889 14.12908698956255
SL-16 R/B               
1 31793U 07029B   26013.22309171 -.00000218  00000+0 -87951-4 0  9994
2 31793  70.9766 288.9787 0002255 273.5870 240.3031 14.14824898957525
KORONAS-FOTON           
1 33504U 09003A   26012.97751788  .00007684  00000+0  17978-3 0  9999
2 33504  82.4317 333.7213 0011404  10.1384 350.0090 15.41879527937152
CZ-2C R/B               
1 37731U 11030B   26013.13724575  .00000947  00000+0  12627-3 0  9992
2 37731  97.8453 331.5584 0052917 169.5751 201.1856 14.81007447781876
H-2A R/B                
1 38341U 12025E   26013.30726096  .00003000  00000+0  27718-3 0  9994
2 38341  98.4636 335.9839 0046122 132.4235 228.0900 14.94673653739943
SHIJIAN-16 (SJ-16)      
1 39358U 13057A   26013.31795616  .00002221  00000+0  22058-3 0  9990
2 39358  74.9734 289.8997 0017817 246.7876 113.1436 14.92136432663245
